GSAT0225 (GALILEO 29)   
1 59598U 24079A   26189.24752330 -.00000009  00000+0  00000+0 0  9998
2 59598  55.1311 100.4922 0000777 311.6524 239.2330  1.70473736 13672
GSAT0227 (GALILEO 30)   
1 59600U 24079C   26187.94680255 -.00000003  00000+0  00000+0 0  9997
2 59600  55.1260 100.5264 0002634  63.1115 296.9336  1.70473885 13703
GSAT0232 (GALILEO 32)   
1 61182U 24167A   26190.09932832  .00000088  00000+0  00000+0 0  9996
2 61182  55.1807 220.7128 0006452 229.7954 226.9213  1.70474006 11256
GSAT0226 (GALILEO 31)   
1 61183U 24167B   26189.78713793  .00000087  00000+0  00000+0 0  9993
2 61183  55.1792 220.7283 0003163 233.9566 122.4953  1.70473959 11217
BEIDOU-3 M25            
1 61186U 24168B   26189.40873657 -.00000066  00000+0  00000+0 0  9990
2 61186  54.4534 301.5057 0003285 292.7058  73.2232  1.86229965 12180
BEIDOU-3 M27            
1 61187U 24168C   26190.26802481 -.00000067  00000+0  00000+0 0  9995
2 61187  54.4479 301.4584 0001007  49.0108 308.0590  1.86229980  9664
NAVSTAR 83 (USA 440)    
1 62339U 24242A   26190.27400485 -.00000078  00000+0  00000+0 0  9999
2 62339  54.8393 333.2870 0017742   4.0392 353.4173  2.00571854 11697
QZS-6 (MICHIBIKI-6)     
1 62876U 25023A   26190.21780937 -.00000219  00000+0  00000+0 0  9997
2 62876   0.0266 305.8909 0001851 182.2756 327.9055  1.00268843  5171
COSMOS 2584 [GLONASS-K2]
1 63130U 25042A   26185.50280755 -.00000010  00000+0  00000+0 0  9990
2 63130  65.0947  72.2135 0006059 222.1818 137.8396  2.13103855 10411
NAVSTAR 84 (USA 545)    
1 64202U 25116A   26188.28169900 -.00000056  00000+0  00000+0 0  9999
2 64202  55.2499  30.3230 0008349 339.7972 202.1311  2.00574400  8274
COSMOS 2596 [GLONASS-K1]
1 65590U 25206B   26188.60472796 -.00000051  00000+0  00000+0 0  9991
2 65590  64.6216 314.2755 0011142 308.4216  27.4110  2.13100766  6346
GSAT0233 (GALILEO 33)   
1 67160U 25302A   26189.73406278 -.00000012  00000+0  00000+0 0  9997
2 67160  54.3473 101.5178 0000858 172.7787 247.6086  1.70473891  3490
GSAT0234 (GALILEO 34)   
1 67162U 25302C   26189.63590403 -.00000012  00000+0  00000+0 0  9992
2 67162  54.3489 101.5195 0002191 318.8515 221.3959  1.70473878  3541
NAVSTAR 85 (USA 581)    
1 67588U 26017A   26189.63546814 -.00000030  00000+0  00000+0 0  9995
2 67588  55.1016  87.8945 0021643 259.6539 100.1366  2.00570619432040
NAVSTAR 86 (USA 585)    
1 68791U 26087A   26189.60920251  .00000113  00000+0  00000+0 0  9998
2 68791  54.9616 206.9407 0020552 106.5478  79.9286  2.00572038  1264
